STARLINK-1267           
1 45384U 20019AA  26201.70263415  .00049244  00000+0  33299-3 0  9996
2 45384  53.0416 197.0402 0003089  53.2831 306.8471 15.74567515351071
STARLINK-1272           
1 45386U 20019AC  26201.21802920  .00064887  00000+0  34576-3 0  9993
2 45386  53.0371 176.7644 0002993  72.0490 288.0857 15.79833064351314
STARLINK-1274           
1 45387U 20019AD  26201.30618568  .00085253  00000+0  68745-3 0  9992
2 45387  53.0159 178.3592 0005547 354.7930   5.3028 15.70172508351293
STARLINK-1280           
1 45388U 20019AE  26202.00002315  .00185346  24426-4  48177-3 0  9992
2 45388  53.0292 176.3705 0005563  61.7739 313.8037 15.94659296  6043
STARLINK-1283           
1 45389U 20019AF  26201.64202448  .00050760  00000+0  30729-3 0  9993
2 45389  53.0335 174.0343 0004510  32.3514 327.7781 15.77080204351390
STARLINK-1284           
1 45390U 20019AG  26201.26513514  .00038719  00000+0  25874-3 0  9997
2 45390  53.0390 200.3846 0004039  97.2749 262.8729 15.74946410350982
STARLINK-1297           
1 45395U 20019AM  26201.87025574  .00070415  00000+0  40107-3 0  9998
2 45395  53.0383 195.8979 0003871  52.0583 308.0787 15.78319968350288
STARLINK-1307           
1 45397U 20019AP  26201.40523998  .00022262  00000+0  28225-3 0  9996
2 45397  53.0505 209.1683 0002823  19.3577 340.7542 15.59400543350700
STARLINK-1255           
1 45399U 20019AR  26201.94686253  .00055144  00000+0  45784-3 0  9995
2 45399  53.0325 171.2589 0005878   8.7722 351.3395 15.69643770351261
STARLINK-1260           
1 45404U 20019AW  26201.46343494  .00023803  00000+0  56318-3 0  9998
2 45404  53.1540 227.3142 0001985 338.8320  21.2603 15.41704753350377
STARLINK-1263           
1 45405U 20019AX  26201.64596417  .00022626  00000+0  59293-3 0  9991
2 45405  53.1540 228.6206 0003673 337.1945  22.8896 15.38617934350375
STARLINK-1265           
1 45406U 20019AY  26201.76882392  .00028514  00000+0  66270-3 0  9990
2 45406  53.1526 225.7350 0002902  10.7577 349.3491 15.42137333350426
STARLINK-1278           
1 45408U 20019BA  26201.36054557  .00057678  00000+0  31271-3 0  9998
2 45408  53.0357 197.0292 0003105  57.2102 302.9217 15.79498918350768
STARLINK-1296           
1 45412U 20019BE  26201.34991751  .00028183  00000+0  65281-3 0  9994
2 45412  53.1531 227.3545 0001935 350.6270   9.4699 15.42246501350369
STARLINK-1309           
1 45414U 20019BG  26201.22980843  .00051184  00000+0  30326-3 0  9992
2 45414  53.0576 192.1805 0003646  59.8538 300.2843 15.77567137350804
STARLINK-1316           
1 45415U 20019BH  26201.37525164  .00009868  00000+0  23275-3 0  9997
2 45415  53.1521 227.0727 0001666 334.7989  25.2936 15.42570310350392
STARLINK-1286           
1 45417U 20019BK  26201.29071953  .00043199  00000+0  37161-3 0  9996
2 45417  53.0424 205.5305 0006931  35.8097 324.3383 15.68880595350911
STARLINK-1308           
1 45419U 20019BM  26201.40920417  .00032993  00000+0  27558-3 0  9998
2 45419  53.0432 223.9473 0002993 134.4946 225.6316 15.69749518350419
ONEWEB-0066             
1 45424U 20020A   26201.86984061 -.00000236  00000+0 -70241-3 0  9995
2 45424  87.8884  14.3631 0001783  96.2474 263.8857 13.11415334307097
ONEWEB-0067             
1 45425U 20020B   26201.90753985 -.00000171  00000+0 -51916-3 0  9996
2 45425  87.8912  14.2843 0001685  87.9193 272.2128 13.11427196307151
ONEWEB-0080             
1 45426U 20020C   26201.90731859 -.00000141  00000+0 -43416-3 0  9996
2 45426  87.8901  14.3557 0002119  97.0636 263.0733 13.11417568307129
ONEWEB-0090             
1 45427U 20020D   26201.93613894  .00000507  00000+0  13941-2 0  9991
2 45427  87.8900  14.3539 0001885  91.1522 268.9822 13.11416163307096
ONEWEB-0061             
1 45428U 20020E   26201.89176237 -.00000514  00000+0 -14860-2 0  9993
2 45428  87.8897  14.3468 0001819  93.6614 266.4722 13.11417132307043
ONEWEB-0081             
1 45429U 20020F   26201.87326143 -.00000029  00000+0 -11682-3 0  9996
2 45429  87.8892  14.3599 0001634  93.2187 266.9128 13.11414875307158
ONEWEB-0069             
1 45430U 20020G   26201.87508137 -.00000058  00000+0 -20004-3 0  9993
2 45430  87.8894  14.3630 0001645  96.2243 263.9073 13.11416765307084
ONEWEB-0031             
1 45431U 20020H   26201.91057166 -.00000060  00000+0 -20414-3 0  9998
2 45431  87.8886  14.3584 0002007  93.5722 266.5636 13.11419941307071
ONEWEB-0027             
1 45432U 20020J   26201.90074724  .00000059  00000+0  11939-3 0  9995
2 45432  87.9155 359.1588 0002221  90.2301 269.9085 13.17648691310791
ONEWEB-0064             
1 45433U 20020K   26201.90886665 -.00000122  00000+0 -38106-3 0  9999
2 45433  87.8892  14.3520 0002024  91.5915 268.5445 13.11418138307102
ONEWEB-0018             
1 45434U 20020L   26201.86464555  .00000366  00000+0  99656-3 0  9990
2 45434  87.8892  14.3603 0001757 105.1323 254.9999 13.11415435307045
ONEWEB-0083             
1 45435U 20020M   26201.93105315  .00000571  00000+0  15752-2 0  9997
2 45435  87.8897  14.3426 0001900  93.5747 266.5598 13.11416840307094
