OBJECT_NAME,OBJECT_ID,EPOCH,MEAN_MOTION,ECCENTRICITY,INCLINATION,RA_OF_ASC_NODE,ARG_OF_PERICENTER,MEAN_ANOMALY,EPHEMERIS_TYPE,CLASSIFICATION_TYPE,NORAD_CAT_ID,ELEMENT_SET_NO,REV_AT_EPOCH,BSTAR,MEAN_MOTION_DOT,MEAN_MOTION_DDOT
STARLINK-1267,2020-019AA,2026-07-20T16:51:47.590560,15.74567515,.00030899,53.0416,197.0402,53.2831,306.8471,0,U,45384,999,35107,.33299269E-3,.49244E-3,0
STARLINK-1272,2020-019AC,2026-07-20T05:13:57.722880,15.79833064,.00029938,53.0371,176.7644,72.0490,288.0857,0,U,45386,999,35131,.34576008E-3,.64887E-3,0
STARLINK-1274,2020-019AD,2026-07-20T07:20:54.442752,15.70172508,.00055479,53.0159,178.3592,354.7930,5.3028,0,U,45387,999,35129,.68744869E-3,.85253E-3,0
STARLINK-1280,2020-019AE,2026-07-21T00:00:02.000160,15.94659296,.00055634,53.0292,176.3705,61.7739,313.8037,0,U,45388,999,604,.48177326E-3,.185346E-2,.24425727E-4
STARLINK-1283,2020-019AF,2026-07-20T15:24:30.915072,15.77080204,.00045101,53.0335,174.0343,32.3514,327.7781,0,U,45389,999,35139,.30729323E-3,.5076E-3,0
STARLINK-1284,2020-019AG,2026-07-20T06:21:47.676096,15.74946410,.00040399,53.0390,200.3846,97.2749,262.8729,0,U,45390,999,35098,.25874107E-3,.38719E-3,0
STARLINK-1297,2020-019AM,2026-07-20T20:53:10.095936,15.78319968,.00038717,53.0383,195.8979,52.0583,308.0787,0,U,45395,999,35028,.40107484E-3,.70415E-3,0
STARLINK-1307,2020-019AP,2026-07-20T09:43:32.734272,15.59400543,.00028238,53.0505,209.1683,19.3577,340.7542,0,U,45397,999,35070,.28224665E-3,.22262E-3,0
STARLINK-1255,2020-019AR,2026-07-20T22:43:28.922592,15.69643770,.00058789,53.0325,171.2589,8.7722,351.3395,0,U,45399,999,35126,.45784383E-3,.55144E-3,0
STARLINK-1260,2020-019AW,2026-07-20T11:07:20.778816,15.41704753,.00019856,53.1540,227.3142,338.8320,21.2603,0,U,45404,999,35037,.56318194E-3,.23803E-3,0
STARLINK-1263,2020-019AX,2026-07-20T15:30:11.304288,15.38617934,.00036735,53.1540,228.6206,337.1945,22.8896,0,U,45405,999,35037,.59292991E-3,.22626E-3,0
STARLINK-1265,2020-019AY,2026-07-20T18:27:06.386688,15.42137333,.00029026,53.1526,225.7350,10.7577,349.3491,0,U,45406,999,35042,.66270008E-3,.28514E-3,0
STARLINK-1278,2020-019BA,2026-07-20T08:39:11.137248,15.79498918,.00031051,53.0357,197.0292,57.2102,302.9217,0,U,45408,999,35076,.31270654E-3,.57678E-3,0
STARLINK-1296,2020-019BE,2026-07-20T08:23:52.872864,15.42246501,.0001935,53.1531,227.3545,350.6270,9.4699,0,U,45412,999,35036,.65281E-3,.28183E-3,0
STARLINK-1309,2020-019BG,2026-07-20T05:30:55.448352,15.77567137,.00036469,53.0576,192.1805,59.8538,300.2843,0,U,45414,999,35080,.30326216E-3,.51184E-3,0
STARLINK-1316,2020-019BH,2026-07-20T09:00:21.741696,15.42570310,.0001666,53.1521,227.0727,334.7989,25.2936,0,U,45415,999,35039,.23275E-3,.9868E-4,0
STARLINK-1286,2020-019BK,2026-07-20T06:58:38.167392,15.68880595,.00069316,53.0424,205.5305,35.8097,324.3383,0,U,45417,999,35091,.37161032E-3,.43199E-3,0
STARLINK-1308,2020-019BM,2026-07-20T09:49:15.240288,15.69749518,.00029937,53.0432,223.9473,134.4946,225.6316,0,U,45419,999,35041,.27558488E-3,.32993E-3,0
ONEWEB-0066,2020-020A,2026-07-20T20:52:34.228704,13.11415334,.00017837,87.8884,14.3631,96.2474,263.8857,0,U,45424,999,30709,-.7024053E-3,-.236E-5,0
ONEWEB-0067,2020-020B,2026-07-20T21:46:51.443040,13.11427196,.00016855,87.8912,14.2843,87.9193,272.2128,0,U,45425,999,30715,-.51915861E-3,-.171E-5,0
ONEWEB-0080,2020-020C,2026-07-20T21:46:32.326176,13.11417568,.00021191,87.8901,14.3557,97.0636,263.0733,0,U,45426,999,30712,-.43415932E-3,-.141E-5,0
ONEWEB-0090,2020-020D,2026-07-20T22:28:02.404416,13.11416163,.00018853,87.8900,14.3539,91.1522,268.9822,0,U,45427,999,30709,.13940694E-2,.507E-5,0
ONEWEB-0061,2020-020E,2026-07-20T21:24:08.268768,13.11417132,.00018197,87.8897,14.3468,93.6614,266.4722,0,U,45428,999,30704,-.14860119E-2,-.514E-5,0
ONEWEB-0081,2020-020F,2026-07-20T20:57:29.787552,13.11414875,.00016344,87.8892,14.3599,93.2187,266.9128,0,U,45429,999,30715,-.11682423E-3,-.29E-6,0
ONEWEB-0069,2020-020G,2026-07-20T21:00:07.030368,13.11416765,.00016454,87.8894,14.3630,96.2243,263.9073,0,U,45430,999,30708,-.20004306E-3,-.58E-6,0
ONEWEB-0031,2020-020H,2026-07-20T21:51:13.391424,13.11419941,.00020076,87.8886,14.3584,93.5722,266.5636,0,U,45431,999,30707,-.20414278E-3,-.6E-6,0
ONEWEB-0027,2020-020J,2026-07-20T21:37:04.561536,13.17648691,.00022219,87.9155,359.1588,90.2301,269.9085,0,U,45432,999,31079,.1193939E-3,.59E-6,0
ONEWEB-0064,2020-020K,2026-07-20T21:48:46.078560,13.11418138,.00020244,87.8892,14.3520,91.5915,268.5445,0,U,45433,999,30710,-.38105764E-3,-.122E-5,0
ONEWEB-0018,2020-020L,2026-07-20T20:45:05.375520,13.11415435,.00017579,87.8892,14.3603,105.1323,254.9999,0,U,45434,999,30704,.99656356E-3,.366E-5,0
ONEWEB-0083,2020-020M,2026-07-20T22:20:42.992160,13.11416840,.00019004,87.8897,14.3426,93.5747,266.5598,0,U,45435,999,30709,.15752454E-2,.571E-5,0
